start=new Date('2023-01-20T00:00:00.000Z').valueOf();
sats=[{"SITE":"AFWTR","LAUNCH_DATE":"2022-10-05","PERIAPSIS":"538.973","TLE_LINE2":"2 54007  53.2175 314.1026 0001173 116.7828 243.3284 15.08827297 16656","FILE":"3755062","MEAN_ELEMENT_THEORY":"SGP4","OBJECT_ID":"2022-125AV","CENTER_NAME":"EARTH","EPOCH":"2023-01-19T15:18:17.523648","MEAN_ANOMALY":"243.3284","RA_OF_ASC_NODE":"314.1026","DECAY_DATE":null,"SEMIMAJOR_AXIS":"6917.919","ELEMENT_SET_NO":"999","RCS_SIZE":"LARGE","EPHEMERIS_TYPE":"0","OBJECT_NAME":"STARLINK-5132","MEAN_MOTION_DDOT":"0.0000000000000","BSTAR":"-0.00003355600000","CLASSIFICATION_TYPE":"U","COUNTRY_CODE":"US","INCLINATION":"53.2175","ECCENTRICITY":"0.00011730","REF_FRAME":"TEME","MEAN_MOTION":"15.08827297","TLE_LINE1":"1 54007U 22125AV  23019.63770282 -.00000822  00000-0 -33556-4 0  9998","NORAD_CAT_ID":"54007","GP_ID":"223502299","OBJECT_TYPE":"PAYLOAD","PERIOD":"95.438","APOAPSIS":"540.596","REV_AT_EPOCH":"1665","MEAN_MOTION_DOT":"-0.00000822","ARG_OF_PERICENTER":"116.7828","TIME_SYSTEM":"UTC"},{"MEAN_MOTION":"15.08851443","INCLINATION":"53.2166","ECCENTRICITY":"0.00010970","REF_FRAME":"TEME","OBJECT_TYPE":"PAYLOAD","PERIOD":"95.437","TLE_LINE1":"1 54008U 22125AW  23019.17124228  .00006226  00000-0  40878-3 0  9997","NORAD_CAT_ID":"54008","GP_ID":"223501284","ARG_OF_PERICENTER":"61.2891","TIME_SYSTEM":"UTC","REV_AT_EPOCH":"1667","APOAPSIS":"540.469","MEAN_MOTION_DOT":"0.00006226","SITE":"AFWTR","LAUNCH_DATE":"2022-10-05","PERIAPSIS":"538.952","TLE_LINE2":"2 54008  53.2166 306.1921 0001097  61.2891 298.8211 15.08851443 16678","FILE":"3754973","MEAN_ELEMENT_THEORY":"SGP4","OBJECT_ID":"2022-125AW","CENTER_NAME":"EARTH","RA_OF_ASC_NODE":"306.1921","DECAY_DATE":null,"ELEMENT_SET_NO":"999","SEMIMAJOR_AXIS":"6917.845","MEAN_ANOMALY":"298.8211","EPOCH":"2023-01-19T04:06:35.332992","CLASSIFICATION_TYPE":"U","COUNTRY_CODE":"US","RCS_SIZE":"LARGE","EPHEMERIS_TYPE":"0","OBJECT_NAME":"STARLINK-5145","BSTAR":"0.00040878000000","MEAN_MOTION_DDOT":"0.0000000000000"},{"MEAN_MOTION":"15.08886598","REF_FRAME":"TEME","ECCENTRICITY":"0.00012310","INCLINATION":"53.2166","PERIOD":"95.435","OBJECT_TYPE":"PAYLOAD","GP_ID":"223499557","NORAD_CAT_ID":"54009","TLE_LINE1":"1 54009U 22125AX  23019.23656824  .00027938  00000-0  17643-2 0  9993","TIME_SYSTEM":"UTC","ARG_OF_PERICENTER":"75.0181","MEAN_MOTION_DOT":"0.00027938","REV_AT_EPOCH":"1654","APOAPSIS":"540.455","PERIAPSIS":"538.751","LAUNCH_DATE":"2022-10-05","SITE":"AFWTR","CENTER_NAME":"EARTH","MEAN_ELEMENT_THEORY":"SGP4","OBJECT_ID":"2022-125AX","TLE_LINE2":"2 54009  53.2166 315.8616 0001231  75.0181 285.0948 15.08886598 16542","FILE":"3754973","SEMIMAJOR_AXIS":"6917.738","ELEMENT_SET_NO":"999","DECAY_DATE":null,"RA_OF_ASC_NODE":"315.8616","EPOCH":"2023-01-19T05:40:39.495936","MEAN_ANOMALY":"285.0948","COUNTRY_CODE":"US","CLASSIFICATION_TYPE":"U","BSTAR":"0.00176430000000","MEAN_MOTION_DDOT":"0.0000000000000","OBJECT_NAME":"STARLINK-5099","EPHEMERIS_TYPE":"0","RCS_SIZE":"LARGE"},{"REF_FRAME":"TEME","ECCENTRICITY":"0.00012000","INCLINATION":"53.2183","MEAN_MOTION":"15.08831670","GP_ID":"223502304","NORAD_CAT_ID":"54010","TLE_LINE1":"1 54010U 22125AY  23019.82630438 -.00002847  00000-0 -16087-3 0  9999","PERIOD":"95.438","OBJECT_TYPE":"PAYLOAD","MEAN_MOTION_DOT":"-0.00002847","REV_AT_EPOCH":"1682","APOAPSIS":"540.601","TIME_SYSTEM":"UTC","ARG_OF_PERICENTER":"84.7011","PERIAPSIS":"538.941","LAUNCH_DATE":"2022-10-05","SITE":"AFWTR","CENTER_NAME":"EARTH","OBJECT_ID":"2022-125AY","MEAN_ELEMENT_THEORY":"SGP4","FILE":"3755058","TLE_LINE2":"2 54010  53.2183 303.1897 0001200  84.7011 275.4118 15.08831670 16823","EPOCH":"2023-01-19T19:49:52.698432","MEAN_ANOMALY":"275.4118","ELEMENT_SET_NO":"999","SEMIMAJOR_AXIS":"6917.906","RA_OF_ASC_NODE":"303.1897","DECAY_DATE":null,"BSTAR":"-0.00016087000000","MEAN_MOTION_DDOT":"0.0000000000000","OBJECT_NAME":"STARLINK-5127","EPHEMERIS_TYPE":"0","RCS_SIZE":"LARGE","COUNTRY_CODE":"US","CLASSIFICATION_TYPE":"U"},{"EPOCH":"2023-01-19T19:34:04.064448","MEAN_ANOMALY":"279.6718","DECAY_DATE":null,"RA_OF_ASC_NODE":"303.8000","SEMIMAJOR_AXIS":"6917.915","ELEMENT_SET_NO":"999","EPHEMERIS_TYPE":"0","RCS_SIZE":"LARGE","MEAN_MOTION_DDOT":"0.0000000000000","BSTAR":"0.00002480200000","OBJECT_NAME":"STARLINK-5124","CLASSIFICATION_TYPE":"U","COUNTRY_CODE":"US","SITE":"AFWTR","PERIAPSIS":"539.145","LAUNCH_DATE":"2022-10-05","MEAN_ELEMENT_THEORY":"SGP4","OBJECT_ID":"2022-125AZ","TLE_LINE2":"2 54011  53.2168 303.8000 0000917  80.4378 279.6718 15.08828825 16812","FILE":"3755058","CENTER_NAME":"EARTH","APOAPSIS":"540.414","REV_AT_EPOCH":"1681","MEAN_MOTION_DOT":"0.00000107","ARG_OF_PERICENTER":"80.4378","TIME_SYSTEM":"UTC","ECCENTRICITY":"0.00009170","INCLINATION":"53.2168","REF_FRAME":"TEME","MEAN_MOTION":"15.08828825","NORAD_CAT_ID":"54011","TLE_LINE1":"1 54011U 22125AZ  23019.81532482  .00000107  00000-0  24802-4 0  9999","GP_ID":"223502809","OBJECT_TYPE":"PAYLOAD","PERIOD":"95.438"},{"NORAD_CAT_ID":"54012","TLE_LINE1":"1 54012U 22125BA  23019.78953158  .00030752  00000-0  19421-2 0  9991","GP_ID":"223502303","OBJECT_TYPE":"PAYLOAD","PERIOD":"95.438","ECCENTRICITY":"0.00009300","INCLINATION":"53.2159","REF_FRAME":"TEME","MEAN_MOTION":"15.08835083","APOAPSIS":"540.404","REV_AT_EPOCH":"1681","MEAN_MOTION_DOT":"0.00030752","ARG_OF_PERICENTER":"90.2613","TIME_SYSTEM":"UTC","MEAN_ELEMENT_THEORY":"SGP4","OBJECT_ID":"2022-125BA","FILE":"3755058","TLE_LINE2":"2 54012  53.2159 303.6432 0000930  90.2613 269.8486 15.08835083 16813","CENTER_NAME":"EARTH","SITE":"AFWTR","PERIAPSIS":"539.117","LAUNCH_DATE":"2022-10-05","EPHEMERIS_TYPE":"0","RCS_SIZE":"LARGE","MEAN_MOTION_DDOT":"0.0000000000000","BSTAR":"0.00194210000000","OBJECT_NAME":"STARLINK-5126","CLASSIFICATION_TYPE":"U","COUNTRY_CODE":"US","EPOCH":"2023-01-19T18:56:55.528512","MEAN_ANOMALY":"269.8486","RA_OF_ASC_NODE":"303.6432","DECAY_DATE":null,"SEMIMAJOR_AXIS":"6917.895","ELEMENT_SET_NO":"999"},{"APOAPSIS":"540.310","REV_AT_EPOCH":"1681","MEAN_MOTION_DOT":"-0.00008910","ARG_OF_PERICENTER":"52.8213","TIME_SYSTEM":"UTC","ECCENTRICITY":"0.00007720","INCLINATION":"53.2171","REF_FRAME":"TEME","MEAN_MOTION":"15.08830056","NORAD_CAT_ID":"54013","TLE_LINE1":"1 54013U 22125BB  23019.79689902 -.00008910  00000-0 -54258-3 0  9997","GP_ID":"223502307","OBJECT_TYPE":"PAYLOAD","PERIOD":"95.438","EPOCH":"2023-01-19T19:07:32.075328","MEAN_ANOMALY":"307.2849","RA_OF_ASC_NODE":"303.6860","DECAY_DATE":null,"SEMIMAJOR_AXIS":"6917.911","ELEMENT_SET_NO":"999","EPHEMERIS_TYPE":"0","RCS_SIZE":"LARGE","MEAN_MOTION_DDOT":"0.0000000000000","BSTAR":"-0.00054258000000","OBJECT_NAME":"STARLINK-5098","CLASSIFICATION_TYPE":"U","COUNTRY_CODE":"US","SITE":"AFWTR","PERIAPSIS":"539.242","LAUNCH_DATE":"2022-10-05","OBJECT_ID":"2022-125BB","MEAN_ELEMENT_THEORY":"SGP4","TLE_LINE2":"2 54013  53.2171 303.6860 0000772  52.8213 307.2849 15.08830056 16812","FILE":"3755058","CENTER_NAME":"EARTH"},{"ARG_OF_PERICENTER":"72.0328","TIME_SYSTEM":"UTC","REV_AT_EPOCH":"1681","APOAPSIS":"540.594","MEAN_MOTION_DOT":"-0.00000995","MEAN_MOTION":"15.08827441","ECCENTRICITY":"0.00011710","INCLINATION":"53.2170","REF_FRAME":"TEME","OBJECT_TYPE":"PAYLOAD","PERIOD":"95.438","NORAD_CAT_ID":"54014","TLE_LINE1":"1 54014U 22125BC  23019.79322934 -.00000995  00000-0 -44464-4 0  9991","GP_ID":"223502811","DECAY_DATE":null,"RA_OF_ASC_NODE":"303.6690","SEMIMAJOR_AXIS":"6917.919","ELEMENT_SET_NO":"999","EPOCH":"2023-01-19T19:02:15.014976","MEAN_ANOMALY":"288.0792","CLASSIFICATION_TYPE":"U","COUNTRY_CODE":"US","EPHEMERIS_TYPE":"0","RCS_SIZE":"LARGE","BSTAR":"-0.00004446400000","MEAN_MOTION_DDOT":"0.0000000000000","OBJECT_NAME":"STARLINK-5116","SITE":"AFWTR","PERIAPSIS":"538.974","LAUNCH_DATE":"2022-10-05","OBJECT_ID":"2022-125BC","MEAN_ELEMENT_THEORY":"SGP4","FILE":"3755058","TLE_LINE2":"2 54014  53.2170 303.6690 0001171  72.0328 288.0792 15.08827441 16815","CENTER_NAME":"EARTH"},{"REV_AT_EPOCH":"1681","APOAPSIS":"540.144","MEAN_MOTION_DOT":"-0.00001651","ARG_OF_PERICENTER":"76.6842","TIME_SYSTEM":"UTC","TLE_LINE1":"1 54015U 22125BD  23019.78217719 -.00001651  00000-0 -85698-4 0  9999","NORAD_CAT_ID":"54015","GP_ID":"223502818","OBJECT_TYPE":"PAYLOAD","PERIOD":"95.438","INCLINATION":"53.2168","ECCENTRICITY":"0.00005230","REF_FRAME":"TEME","MEAN_MOTION":"15.08828102","RCS_SIZE":"LARGE","EPHEMERIS_TYPE":"0","OBJECT_NAME":"STARLINK-5055","MEAN_MOTION_DDOT":"0.0000000000000","BSTAR":"-0.00008569800000","CLASSIFICATION_TYPE":"U","COUNTRY_CODE":"US","EPOCH":"2023-01-19T18:46:20.109216","MEAN_ANOMALY":"283.4208","DECAY_DATE":null,"RA_OF_ASC_NODE":"303.5987","SEMIMAJOR_AXIS":"6917.917","ELEMENT_SET_NO":"999","FILE":"3755059","TLE_LINE2":"2 54015  53.2168 303.5987 0000523  76.6842 283.4208 15.08828102 16818","OBJECT_ID":"2022-125BD","MEAN_ELEMENT_THEORY":"SGP4","CENTER_NAME":"EARTH","SITE":"AFWTR","LAUNCH_DATE":"2022-10-05","PERIAPSIS":"539.420"},{"TLE_LINE1":"1 54051U 22136A   23019.48597106  .00007898  00000-0  51339-3 0  9990","NORAD_CAT_ID":"54051","GP_ID":"223507458","OBJECT_TYPE":"PAYLOAD","PERIOD":"95.436","INCLINATION":"53.2164","ECCENTRICITY":"0.00009350","REF_FRAME":"TEME","MEAN_MOTION":"15.08864771","APOAPSIS":"540.316","REV_AT_EPOCH":"1443","MEAN_MOTION_DOT":"0.00007898","ARG_OF_PERICENTER":"86.5139","TIME_SYSTEM":"UTC","FILE":"3755244","TLE_LINE2":"2 54051  53.2164  85.3813 0000935  86.5139 273.5960 15.08864771 14436","OBJECT_ID":"2022-136A","MEAN_ELEMENT_THEORY":"SGP4","CENTER_NAME":"EARTH","SITE":"AFETR","LAUNCH_DATE":"2022-10-20","PERIAPSIS":"539.023","RCS_SIZE":"LARGE","EPHEMERIS_TYPE":"0","OBJECT_NAME":"STARLINK-5195","MEAN_MOTION_DDOT":"0.0000000000000","BSTAR":"0.00051339000000","CLASSIFICATION_TYPE":"U","COUNTRY_CODE":"US","EPOCH":"2023-01-19T11:39:47.899584","MEAN_ANOMALY":"273.5960","DECAY_DATE":null,"RA_OF_ASC_NODE":"85.3813","SEMIMAJOR_AXIS":"6917.805","ELEMENT_SET_NO":"999"}];
